NORAD_CAT_ID,OBJECT_NAME,OBJECT_TYPE,EPOCH,MEAN_MOTION,ECCENTRICITY,INCLINATION,RA_OF_ASC_NODE,ARG_OF_PERICENTER,MEAN_ANOMALY,BSTAR,MEAN_MOTION_DOT,MEAN_MOTION_DDOT,TLE_LINE0,TLE_LINE1,TLE_LINE2,SEMIMAJOR_AXIS,PERIOD,APOGEE,PERIGEE,DECAYED
53987.0,STARLINK-5112,PAYLOAD,2023-06-16 17:39:37,15.08845292,0.0001104,53.2176,9.8159,89.8966,270.2153,0.00018782,2.703e-05,0.0,0 STARLINK-5112,1 53987U 22125Z   23167.73584595  .00002703  00000-0  18782-3 0  9990,2 53987  53.2176   9.8159 0001104  89.8966 270.2153 15.08845292 38951,6917.864,95.437,540.493,538.965,0.0
53987.0,STARLINK-5112,PAYLOAD,2023-06-17 00:01:09,15.08858229,0.0001114,53.2167,8.6264,92.3047,267.8073,0.00031145,4.675e-05,0.0,0 STARLINK-5112,1 53987U 22125Z   23168.00079991  .00004675  00000-0  31145-3 0  9998,2 53987  53.2167   8.6264 0001114  92.3047 267.8073 15.08858229 39065,6917.825,95.436,540.46,538.919,0.0
53987.0,STARLINK-5112,PAYLOAD,2023-06-17 06:22:42,15.08838638,0.0002284,53.2156,7.433,72.9055,287.2187,3.4452e-05,2.6e-06,0.0,0 STARLINK-5112,1 53987U 22125Z   23168.26577385  .00000260  00000-0  34452-4 0  9997,2 53987  53.2156   7.4330 0002284  72.9055 287.2187 15.08838638 39105,6917.885,95.438,541.33,538.17,0.0
53987.0,STARLINK-5112,PAYLOAD,2023-06-17 15:55:02,15.08820991,0.0001146,53.2167,5.6528,83.1677,276.9446,-0.00024793,-4.229e-05,0.0,0 STARLINK-5112,1 53987U 22125Z   23168.66322155 -.00004229  00000-0 -24793-3 0  9991,2 53987  53.2167   5.6528 0001146  83.1677 276.9446 15.08820991 39168,6917.938,95.439,540.596,539.011,0.0
53987.0,STARLINK-5112,PAYLOAD,2023-06-18 12:35:03,15.08833782,0.0001054,53.2164,1.7864,80.9633,279.1479,0.00012592,1.716e-05,0.0,0 STARLINK-5112,1 53987U 22125Z   23169.52434169  .00001716  00000-0  12592-3 0  9996,2 53987  53.2164   1.7864 0001054  80.9633 279.1479 15.08833782 39220,6917.899,95.438,540.494,539.035,0.0
53987.0,STARLINK-5112,PAYLOAD,2023-06-18 15:45:49,15.08837989,0.0001058,53.2162,1.1918,77.6339,282.4771,0.00038168,5.791e-05,0.0,0 STARLINK-5112,1 53987U 22125Z   23169.65682213  .00005791  00000-0  38168-3 0  9999,2 53987  53.2162   1.1918 0001058  77.6339 282.4771 15.08837989 39317,6917.887,95.438,540.483,539.02,0.0
53987.0,STARLINK-5112,PAYLOAD,2023-06-18 18:56:35,15.08841137,0.000101,53.2159,0.5972,74.1653,285.9451,0.00096507,0.00015105,0.0,0 STARLINK-5112,1 53987U 22125Z   23169.78930481  .00015105  00000-0  96507-3 0  9997,2 53987  53.2159   0.5972 0001010  74.1653 285.9451 15.08841137 39262,6917.877,95.437,540.441,539.043,0.0
53987.0,STARLINK-5112,PAYLOAD,2023-06-19 07:39:40,15.08853145,0.0001067,53.2159,358.2182,73.3561,286.7549,0.00079682,0.00012421,0.0,0 STARLINK-5112,1 53987U 22125Z   23170.31922210  .00012421  00000-0  79682-3 0  9992,2 53987  53.2159 358.2182 0001067  73.3561 286.7549 15.08853145 39347,6917.84,95.437,540.443,538.967,0.0
53987.0,STARLINK-5112,PAYLOAD,2023-06-19 18:47:22,15.08865192,0.0001049,53.2161,356.1364,73.3326,286.7781,0.00086213,0.00013469,0.0,0 STARLINK-5112,1 53987U 22125Z   23170.78289634  .00013469  00000-0  86213-3 0  9990,2 53987  53.2161 356.1364 0001049  73.3326 286.7781 15.08865192 39486,6917.803,95.436,540.394,538.943,0.0
53987.0,STARLINK-5112,PAYLOAD,2023-06-20 07:30:27,15.0885459,6.43e-05,53.2178,353.76,59.3629,300.7426,0.00042759,6.527e-05,0.0,0 STARLINK-5112,1 53987U 22125Z   23171.31281411  .00006527  00000-0  42759-3 0  9999,2 53987  53.2178 353.7600 0000643  59.3629 300.7426 15.08854590 39561,6917.836,95.437,540.146,539.256,0.0
53987.0,STARLINK-5112,PAYLOAD,2023-06-20 17:02:46,15.08849363,0.0001106,53.2166,351.9735,73.8142,286.2972,0.00020049,2.905e-05,0.0,0 STARLINK-5112,1 53987U 22125Z   23171.71025568  .00002905  00000-0  20049-3 0  9996,2 53987  53.2166 351.9735 0001106  73.8142 286.2972 15.08849363 39626,6917.852,95.437,540.482,538.952,0.0
53987.0,STARLINK-5112,PAYLOAD,2023-06-20 18:38:09,15.08847945,0.0001121,53.2167,351.6765,66.7408,293.3702,0.00016697,2.371e-05,0.0,0 STARLINK-5112,1 53987U 22125Z   23171.77649591  .00002371  00000-0  16697-3 0  9991,2 53987  53.2167 351.6765 0001121  66.7408 293.3702 15.08847945 39567,6917.856,95.437,540.497,538.946,0.0
53987.0,STARLINK-5112,PAYLOAD,2023-06-21 12:07:23,15.08841364,9.26e-05,53.2169,348.405,83.2175,276.8923,6.2606e-05,7.09e-06,0.0,0 STARLINK-5112,1 53987U 22125Z   23172.50513654  .00000709  00000-0  62606-4 0  9998,2 53987  53.2169 348.4050 0000926  83.2175 276.8923 15.08841364 39747,6917.876,95.437,540.382,539.101,0.0
53987.0,STARLINK-5112,PAYLOAD,2023-06-21 18:28:56,15.08845624,0.0001002,53.2169,347.2157,82.5184,277.5922,0.00021665,3.162e-05,0.0,0 STARLINK-5112,1 53987U 22125Z   23172.77009564  .00003162  00000-0  21665-3 0  9992,2 53987  53.2169 347.2157 0001002  82.5184 277.5922 15.08845624 39717,6917.863,95.437,540.421,539.035,0.0
53987.0,STARLINK-5112,PAYLOAD,2023-06-22 18:19:43,15.08843077,9.77e-05,53.2172,342.7551,85.3306,274.7797,0.00021774,3.18e-05,0.0,0 STARLINK-5112,1 53987U 22125Z   23173.76369973  .00003180  00000-0  21774-3 0  9996,2 53987  53.2172 342.7551 0000977  85.3306 274.7797 15.08843077 39939,6917.871,95.437,540.412,539.06,0.0
53987.0,STARLINK-5112,PAYLOAD,2023-06-23 18:10:30,15.08841414,9.56e-05,53.2167,338.2959,87.4924,272.6177,0.00012579,1.715e-05,0.0,0 STARLINK-5112,1 53987U 22125Z   23174.75730033  .00001715  00000-0  12579-3 0  9990,2 53987  53.2167 338.2959 0000956  87.4924 272.6177 15.08841414 40081,6917.876,95.437,540.402,539.08,0.0
53987.0,STARLINK-5112,PAYLOAD,2023-06-25 03:33:36,15.08832649,7.61e-05,53.2171,332.0502,95.503,264.6049,-8.5962e-05,-1.655e-05,0.0,0 STARLINK-5112,1 53987U 22125Z   23176.14834309 -.00001655  00000-0 -85962-4 0  9998,2 53987  53.2171 332.0502 0000761  95.5030 264.6049 15.08832649 40296,6917.903,95.438,540.294,539.241,0.0
53987.0,STARLINK-5112,PAYLOAD,2023-06-25 16:16:41,15.08846163,8.91e-05,53.2157,329.6709,91.7847,268.3247,0.00031162,4.676e-05,0.0,0 STARLINK-5112,1 53987U 22125Z   23176.67826040  .00004676  00000-0  31162-3 0  9995,2 53987  53.2157 329.6709 0000891  91.7847 268.3247 15.08846163 40375,6917.862,95.437,540.343,539.11,0.0
53987.0,STARLINK-5112,PAYLOAD,2023-06-26 09:45:56,15.08835746,0.000136,53.2161,326.4013,75.1528,284.9615,0.00024138,3.555e-05,0.0,0 STARLINK-5112,1 53987U 22125Z   23177.40690679  .00003555  00000-0  24138-3 0  9994,2 53987  53.2161 326.4013 0001360  75.1528 284.9615 15.08835746 40487,6917.893,95.438,540.699,538.818,0.0
53987.0,STARLINK-5112,PAYLOAD,2023-06-27 17:33:39,15.08852665,0.000112,53.2166,320.4529,75.4916,284.6201,0.0004832,7.413e-05,0.0,0 STARLINK-5112,1 53987U 22125Z   23178.73170502  .00007413  00000-0  48320-3 0  9995,2 53987  53.2166 320.4529 0001120  75.4916 284.6201 15.08852665 40685,6917.842,95.437,540.481,538.932,0.0
53987.0,STARLINK-5112,PAYLOAD,2023-06-28 09:27:30,15.08843305,0.0001099,53.2143,317.48,66.1652,293.9456,0.00015028,2.105e-05,0.0,0 STARLINK-5112,1 53987U 22125Z   23179.39410679  .00002105  00000-0  15028-3 0  9992,2 53987  53.2143 317.4800 0001099  66.1652 293.9456 15.08843305 40784,6917.87,95.437,540.496,538.975,0.0
53987.0,STARLINK-5112,PAYLOAD,2023-06-29 17:15:13,15.08844674,0.0001028,53.2172,311.5308,89.615,270.496,2.6918e-05,1.41e-06,0.0,0 STARLINK-5112,1 53987U 22125Z   23180.71890425  .00000141  00000-0  26918-4 0  9990,2 53987  53.2172 311.5308 0001028  89.6150 270.4960 15.08844674 40981,6917.866,95.437,540.442,539.02,0.0
53987.0,STARLINK-5112,PAYLOAD,2023-07-01 16:56:47,15.08840581,9.27e-05,53.2176,302.6125,82.7344,277.3753,5.1562e-05,5.33e-06,0.0,0 STARLINK-5112,1 53987U 22125Z   23182.70611006  .00000533  00000-0  51562-4 0  9995,2 53987  53.2176 302.6125 0000927  82.7344 277.3753 15.08840581 41282,6917.879,95.438,540.385,539.102,0.0
53987.0,STARLINK-5112,PAYLOAD,2023-07-03 16:38:21,15.08852182,9.3e-05,53.2171,293.6908,90.2476,269.8623,0.00018768,2.701e-05,0.0,0 STARLINK-5112,1 53987U 22125Z   23184.69330100  .00002701  00000-0  18768-3 0  9997,2 53987  53.2171 293.6908 0000930  90.2476 269.8623 15.08852182 41584,6917.843,95.437,540.352,539.065,0.0
53987.0,STARLINK-5112,PAYLOAD,2023-07-04 00:35:17,15.08838374,0.0001135,53.2168,292.203,79.9834,280.1287,-2.9985e-05,-7.65e-06,0.0,0 STARLINK-5112,1 53987U 22125Z   23185.02451000 -.00000765  00000-0 -29985-4 0  9992,2 53987  53.2168 292.2030 0001135  79.9834 280.1287 15.08838374 41636,6917.885,95.438,540.536,538.965,0.0
53987.0,STARLINK-5112,PAYLOAD,2023-07-05 06:47:37,15.08841833,9.4e-05,53.2163,286.5546,76.0539,284.0558,4.1618e-05,3.75e-06,0.0,0 STARLINK-5112,1 53987U 22125Z   23186.28307209  .00000375  00000-0  41618-4 0  9994,2 53987  53.2163 286.5546 0000940  76.0539 284.0558 15.08841833 41821,6917.875,95.437,540.39,539.09,0.0
53987.0,STARLINK-5112,PAYLOAD,2023-07-06 01:52:16,15.08822833,0.0001008,53.2161,282.9865,87.4671,272.6437,0.00086089,0.00013433,0.0,0 STARLINK-5112,1 53987U 22125Z   23187.07796682  .00013433  00000-0  86089-3 0  9998,2 53987  53.2161 282.9865 0001008  87.4671 272.6437 15.08822833 41943,6917.933,95.439,540.495,539.101,0.0
53987.0,STARLINK-5112,PAYLOAD,2023-07-06 06:38:24,15.0884024,9.63e-05,53.216,282.0942,71.7066,288.4031,0.00021784,3.181e-05,0.0,0 STARLINK-5112,1 53987U 22125Z   23187.27667412  .00003181  00000-0  21784-3 0  9998,2 53987  53.2160 282.0942 0000963  71.7066 288.4031 15.08840240 41972,6917.88,95.438,540.411,539.078,0.0
53987.0,STARLINK-5112,PAYLOAD,2023-07-07 09:39:57,15.08845074,0.0001019,53.2156,277.0389,73.8819,286.2286,0.0001308,1.795e-05,0.0,0 STARLINK-5112,1 53987U 22125Z   23188.40275031  .00001795  00000-0  13080-3 0  9995,2 53987  53.2156 277.0389 0001019  73.8819 286.2286 15.08845074 42146,6917.865,95.437,540.435,539.025,0.0
53987.0,STARLINK-5112,PAYLOAD,2023-07-08 07:55:21,15.08838097,9.9e-05,53.2156,272.8767,76.9301,283.1802,3.6779e-06,-2.29e-06,0.0,0 STARLINK-5112,1 53987U 22125Z   23189.33011172 -.00000229  00000-0  36779-5 0  9996,2 53987  53.2156 272.8767 0000990  76.9301 283.1802 15.08838097 42288,6917.886,95.438,540.436,539.066,0.0
